{
    "links": {
        "self": "http://www.neowsapp.com/rest/v1/neo/54068392?api_key=iIulBulltgU6a56xZRHN4H3l9WmuAYTsLGpBGhQ2"
    },
    "id": "54068392",
    "neo_reference_id": "54068392",
    "name": "(2020 TT6)",
    "designation": "2020 TT6",
    "nasa_jpl_url": "http://ssd.jpl.nasa.gov/sbdb.cgi?sstr=54068392",
    "absolute_magnitude_h": 24.127,
    "estimated_diameter": {
        "kilometers": {
            "estimated_diameter_min": 0.0397333311,
            "estimated_diameter_max": 0.0888464294
        },
        "meters": {
            "estimated_diameter_min": 39.7333311305,
            "estimated_diameter_max": 88.8464293802
        },
        "miles": {
            "estimated_diameter_min": 0.0246891397,
            "estimated_diameter_max": 0.0552065947
        },
        "feet": {
            "estimated_diameter_min": 130.3587021061,
            "estimated_diameter_max": 291.4909193678
        }
    },
    "is_potentially_hazardous_asteroid": false,
    "close_approach_data": [
        {
            "close_approach_date": "2020-10-18",
            "close_approach_date_full": "2020-Oct-18 00:10",
            "epoch_date_close_approach": 1602979800000,
            "relative_velocity": {
                "kilometers_per_second": "13.3469805293",
                "kilometers_per_hour": "48049.129905394",
                "miles_per_hour": "29855.8607459377"
            },
            "miss_distance": {
                "astronomical": "0.1596443106",
                "lunar": "62.1016368234",
                "kilometers": "23882448.823378422",
                "miles": "14839865.5651373436"
            },
            "orbiting_body": "Earth"
        }
    ],
    "orbital_data": {
        "orbit_id": "2",
        "orbit_determination_date": "2020-10-18 08:07:44",
        "first_observation_date": "2020-10-14",
        "last_observation_date": "2020-10-17",
        "data_arc_in_days": 3,
        "observations_used": 17,
        "orbit_uncertainty": "9",
        "minimum_orbit_intersection": ".152152",
        "jupiter_tisserand_invariant": "4.005",
        "epoch_osculation": "2459137.5",
        "eccentricity": ".3394139968756438",
        "semi_major_axis": "1.725122353573104",
        "inclination": "24.08521104607373",
        "ascending_node_longitude": "203.4977710578454",
        "orbital_period": "827.6148617873696",
        "perihelion_distance": "1.139591680447339",
        "perihelion_argument": "195.5209009562768",
        "aphelion_distance": "2.310653026698868",
        "perihelion_time": "2459152.582203093446",
        "mean_anomaly": "353.4394688105111",
        "mean_motion": ".434984938794503",
        "equinox": "J2000",
        "orbit_class": {
            "orbit_class_type": "AMO",
            "orbit_class_description": "Near-Earth asteroid orbits similar to that of 1221 Amor",
            "orbit_class_range": "1.017 AU < q (perihelion) < 1.3 AU"
        }
    },
    "is_sentry_object": false
}